STARLINK-36982          
1 68278U 26055S   26107.57375123  .00152417  00000+0  76066-3 0  9995
2 68278  53.1562 142.2825 0001278  72.7824 287.3338 15.80917010  5839
STARLINK-36934          
1 68279U 26055T   26107.57450141  .00139467  00000+0  69738-3 0  9998
2 68279  53.1567 142.2879 0001057  83.4398 276.6745 15.80916855  5833
STARLINK-37070          
1 68280U 26055U   26107.38259529  .00126357  00000+0  63340-3 0  9993
2 68280  53.1574 143.2246 0001640  37.7033 322.4105 15.80906790  5802
STARLINK-37134          
1 68281U 26055V   26107.57074888  .00233668  00000+0  11519-2 0  9992
2 68281  53.1564 142.2610 0000952  84.5968 275.5164 15.80943538  5835
STARLINK-37160          
1 68282U 26055W   26107.57150001  .00236294  00000+0  11635-2 0  9992
2 68282  53.1567 142.2677 0000892  82.0765 278.0359 15.80961030  5834
STARLINK-37124          
1 68283U 26055X   26107.82287996  .00297364  00000+0  14555-2 0  9994
2 68283  53.1566 140.9892 0001427 106.9891 253.1288 15.80922247  5875
STARLINK-37159          
1 68284U 26055Y   26108.25003472 -.01928657  00000+0 -18827-1 0  9992
2 68284  53.1594 138.9748 0001598  74.4557 137.4220 15.68582161  5997
STARLINK-36725          
1 68285U 26055Z   26107.82137742  .00359420  00000+0  17389-2 0  9999
2 68285  53.1567 140.9781 0000560  50.3312 309.7760 15.81007614  5878
STARLINK-36998          
1 68286U 26055AA  26107.81987826  .00208133  00000+0  10305-2 0  9990
2 68286  53.1565 140.9701 0001580  99.1775 260.9426 15.80920891  5873
STARLINK-37165          
1 68287U 26055AB  26107.81912869  .00170460  00000+0  84880-3 0  9997
2 68287  53.1566 140.9631 0001410  86.3639 273.7545 15.80909506  5870
STARLINK-37016          
1 68288U 26055AC  26107.82064452  .00243034  00000+0  11937-2 0  9995
2 68288  53.1565 140.9731 0002761 336.6680  23.4217 15.80994549  5875
STARLINK-37010          
1 68289U 26055AD  26107.81837873  .00257649  00000+0  12644-2 0  9993
2 68289  53.1567 140.9586 0000935  63.0277 297.0841 15.80974459  5870
STARLINK-37151          
1 68290U 26055AE  26107.81763921  .00250080  00000+0  12305-2 0  9993
2 68290  53.1565 140.9534 0004050  83.6131 276.5353 15.80932907  5874
STRIX-6                 
1 68291U 26056A   26107.83558468  .00001894  00000+0  17235-3 0  9990
2 68291  50.2836 274.9949 0016319  12.5858 347.5495 14.99775628  4217
STARLINK-37107          
1 68294U 26057A   26107.89114609  .00248052  00000+0  16091-2 0  9992
2 68294  97.2873 232.2497 0002141  54.0836 306.0628 15.75289006  4451
